[{"OBJECT_NAME":"STARLINK-32914","OBJECT_ID":"2025-037K","EPOCH":"2026-03-09T21:39:29.593440","MEAN_MOTION":14.98325111,"ECCENTRICITY":0.00022735,"INCLINATION":70.0068,"RA_OF_ASC_NODE":353.9263,"ARG_OF_PERICENTER":273.1481,"MEAN_ANOMALY":86.9418,"EPHEMERIS_TYPE":0,"CLASSIFICATION_TYPE":"U","NORAD_CAT_ID":63086,"ELEMENT_SET_NO":999,"REV_AT_EPOCH":5863,"BSTAR":0.00074045257,"MEAN_MOTION_DOT":8.752e-5,"MEAN_MOTION_DDOT":0},{"OBJECT_NAME":"QPS-SAR-10 (WADATSUMI-I)","OBJECT_ID":"2025-104A","EPOCH":"2026-03-09T22:18:19.817856","MEAN_MOTION":15.00816738,"ECCENTRICITY":0.00107055,"INCLINATION":42.0035,"RA_OF_ASC_NODE":106.051,"ARG_OF_PERICENTER":46.9104,"MEAN_ANOMALY":313.2617,"EPHEMERIS_TYPE":0,"CLASSIFICATION_TYPE":"U","NORAD_CAT_ID":64055,"ELEMENT_SET_NO":999,"REV_AT_EPOCH":4451,"BSTAR":0.00049051731,"MEAN_MOTION_DOT":6.161e-5,"MEAN_MOTION_DDOT":0}]
